STARLINK-36344          
1 67710U 26025T   26065.25050098  .00404094  00000+0  25669-2 0  9994
2 67710  97.2843 176.7346 0001722 136.4996 223.6406 15.75343733  5414
STARLINK-36687          
1 67711U 26025U   26065.29620284  .00205288  00000+0  10448-2 0  9992
2 67711  97.2852 176.8238 0002164 358.7010   1.4252 15.80870832  5426
STARLINK-36705          
1 67712U 26025V   26065.25861879  .00356927  00000+0  22828-2 0  9998
2 67712  97.2859 176.7196 0000977 100.2586 259.8789 15.75315574  5407
STARLINK-36708          
1 67713U 26025W   26065.83334490 -.02123459  00000+0 -25246-1 0  9999
2 67713  97.2849 177.3749 0001859  67.9999  64.4394 15.64594060  5460
STARLINK-36702          
1 67714U 26025X   26065.83334490 -.00098512  00000+0 -66562-3 0  9997
2 67714  97.2857 177.4032 0000612  84.9034 114.0614 15.75247309  5191
STARLINK-36718          
1 67715U 26025Y   26065.28117818  .00361034  00000+0  17946-2 0  9991
2 67715  97.2862 176.8433 0001051  95.7163 264.4225 15.80987205  5412
STARLINK-36715          
1 67716U 26025Z   26065.28323909  .00325658  00000+0  16293-2 0  9998
2 67716  97.2865 176.8430 0001274  54.9262 305.2126 15.80935017  5415
STARLINK-36385          
1 67717U 26025AA  26065.28949470  .00206394  00000+0  10506-2 0  9992
2 67717  97.2859 176.8330 0002469 351.3086   8.8139 15.80863149  5419
CZ-2F DEB               
1 67718U 26024E   26064.93993418  .00230629  00000+0  40707-2 0  9998
2 67718  50.3188  37.1031 0236985 265.1895  92.1970 15.23940381  4064
CZ-2F DEB               
1 67719U 26024F   26065.62346864  .00167047  00000+0  39969-2 0  9994
2 67719  49.7930  36.7004 0314037 259.1583  97.3875 15.02698338  3787
CZ-2F DEB               
1 67720U 26024G   26065.40587086  .00139708  00000+0  34505-2 0  9999
2 67720  49.8328  38.3346 0325192 254.3954 102.0882 14.99894984  4065
STARLINK-36772          
1 67721U 26026A   26065.83334490 -.01966617  00000+0 -29508-1 0  9994
2 67721  97.2845 120.3035 0001774  62.7716  50.1057 15.58324836  4852
